ORBCOMM FM05            
1 25117U 97084F   24352.85465661  .00003932  00000+0  11637-2 0  9997
2 25117  45.0127 157.9637 0000757  68.3938 291.6994 14.44706155414377
ORBCOMM FM06            
1 25118U 97084G   24352.88793951  .00003383  00000+0  10032-2 0  9995
2 25118  45.0122 157.7691 0000772 146.7435 328.5596 14.44888344415292
ORBCOMM FM07            
1 25119U 97084H   24352.87328292  .00003305  00000+0  98379-3 0  9992
2 25119  45.0117 158.5479 0001251  30.9180 329.1745 14.44758789415285
ORBCOMM FM03            
1 25158U 98007B   24352.83991123  .00003463  00000+0  12783-2 0  9995
2 25158 107.9669 123.2541 0047760 208.5077 151.3448 14.33607946398045
ORBCOMM FM04            
1 25159U 98007C   24352.85677079  .00003407  00000+0  12545-2 0  9993
2 25159 107.9660 126.3831 0043329 206.3612 153.5322 14.33881122398226
ORBCOMM FM17            
1 25413U 98046A   24352.80586053  .00002219  00000+0  83127-3 0  9990
2 25413  44.9952  33.2108 0002488 324.4518  35.6162 14.34368599377121
ORBCOMM FM18            
1 25414U 98046B   24352.90187503  .00003317  00000+0  11428-2 0  9993
2 25414  44.9937 314.8269 0003554  62.0861 298.0346 14.37553980378158
ORBCOMM FM19            
1 25415U 98046C   24352.89905580  .00002556  00000+0  89482-3 0  9995
2 25415  44.9950 316.5578 0002761  41.5141 344.2192 14.37367975378114
