<?xml version="1.0" encoding="UTF-8"?>
<ndm xmlns:xsi="http://www.w3.org/2001/XMLSchema-instance" xsi:noNamespaceSchemaLocation="https://sanaregistry.org/r/ndmxml_unqualified/ndmxml-2.0.0-master-2.0.xsd">
<omm id="CCSDS_OMM_VERS" version="2.0">
<header><CREATION_DATE/><ORIGINATOR/></header><body><segment><metadata><OBJECT_NAME>ORBCOMM FM05</OBJECT_NAME><OBJECT_ID>1997-084F</OBJECT_ID><CENTER_NAME>EARTH</CENTER_NAME><REF_FRAME>TEME</REF_FRAME><TIME_SYSTEM>UTC</TIME_SYSTEM><MEAN_ELEMENT_THEORY>SGP4</MEAN_ELEMENT_THEORY></metadata><data><meanElements><EPOCH>2024-12-17T20:30:42.331104</EPOCH><MEAN_MOTION>14.44706155</MEAN_MOTION><ECCENTRICITY>.0000757</ECCENTRICITY><INCLINATION>45.0127</INCLINATION><RA_OF_ASC_NODE>157.9637</RA_OF_ASC_NODE><ARG_OF_PERICENTER>68.3938</ARG_OF_PERICENTER><MEAN_ANOMALY>291.6994</MEAN_ANOMALY></meanElements><tleParameters><EPHEMERIS_TYPE>0</EPHEMERIS_TYPE><CLASSIFICATION_TYPE>U</CLASSIFICATION_TYPE><NORAD_CAT_ID>25117</NORAD_CAT_ID><ELEMENT_SET_NO>999</ELEMENT_SET_NO><REV_AT_EPOCH>41437</REV_AT_EPOCH><BSTAR>.11637E-2</BSTAR><MEAN_MOTION_DOT>.3932E-4</MEAN_MOTION_DOT><MEAN_MOTION_DDOT>0</MEAN_MOTION_DDOT></tleParameters></data></segment></body></omm>
<omm id="CCSDS_OMM_VERS" version="2.0">
<header><CREATION_DATE/><ORIGINATOR/></header><body><segment><metadata><OBJECT_NAME>ORBCOMM FM06</OBJECT_NAME><OBJECT_ID>1997-084G</OBJECT_ID><CENTER_NAME>EARTH</CENTER_NAME><REF_FRAME>TEME</REF_FRAME><TIME_SYSTEM>UTC</TIME_SYSTEM><MEAN_ELEMENT_THEORY>SGP4</MEAN_ELEMENT_THEORY></metadata><data><meanElements><EPOCH>2024-12-17T21:18:37.973664</EPOCH><MEAN_MOTION>14.44888344</MEAN_MOTION><ECCENTRICITY>.0000772</ECCENTRICITY><INCLINATION>45.0122</INCLINATION><RA_OF_ASC_NODE>157.7691</RA_OF_ASC_NODE><ARG_OF_PERICENTER>146.7435</ARG_OF_PERICENTER><MEAN_ANOMALY>328.5596</MEAN_ANOMALY></meanElements><tleParameters><EPHEMERIS_TYPE>0</EPHEMERIS_TYPE><CLASSIFICATION_TYPE>U</CLASSIFICATION_TYPE><NORAD_CAT_ID>25118</NORAD_CAT_ID><ELEMENT_SET_NO>999</ELEMENT_SET_NO><REV_AT_EPOCH>41529</REV_AT_EPOCH><BSTAR>.10032E-2</BSTAR><MEAN_MOTION_DOT>.3383E-4</MEAN_MOTION_DOT><MEAN_MOTION_DDOT>0</MEAN_MOTION_DDOT></tleParameters></data></segment></body></omm>
<omm id="CCSDS_OMM_VERS" version="2.0">
<header><CREATION_DATE/><ORIGINATOR/></header><body><segment><metadata><OBJECT_NAME>ORBCOMM FM07</OBJECT_NAME><OBJECT_ID>1997-084H</OBJECT_ID><CENTER_NAME>EARTH</CENTER_NAME><REF_FRAME>TEME</REF_FRAME><TIME_SYSTEM>UTC</TIME_SYSTEM><MEAN_ELEMENT_THEORY>SGP4</MEAN_ELEMENT_THEORY></metadata><data><meanElements><EPOCH>2024-12-17T20:57:31.644288</EPOCH><MEAN_MOTION>14.44758789</MEAN_MOTION><ECCENTRICITY>.0001251</ECCENTRICITY><INCLINATION>45.0117</INCLINATION><RA_OF_ASC_NODE>158.5479</RA_OF_ASC_NODE><ARG_OF_PERICENTER>30.9180</ARG_OF_PERICENTER><MEAN_ANOMALY>329.1745</MEAN_ANOMALY></meanElements><tleParameters><EPHEMERIS_TYPE>0</EPHEMERIS_TYPE><CLASSIFICATION_TYPE>U</CLASSIFICATION_TYPE><NORAD_CAT_ID>25119</NORAD_CAT_ID><ELEMENT_SET_NO>999</ELEMENT_SET_NO><REV_AT_EPOCH>41528</REV_AT_EPOCH><BSTAR>.98379E-3</BSTAR><MEAN_MOTION_DOT>.3305E-4</MEAN_MOTION_DOT><MEAN_MOTION_DDOT>0</MEAN_MOTION_DDOT></tleParameters></data></segment></body></omm>
<omm id="CCSDS_OMM_VERS" version="2.0">
<header><CREATION_DATE/><ORIGINATOR/></header><body><segment><metadata><OBJECT_NAME>ORBCOMM FM03</OBJECT_NAME><OBJECT_ID>1998-007B</OBJECT_ID><CENTER_NAME>EARTH</CENTER_NAME><REF_FRAME>TEME</REF_FRAME><TIME_SYSTEM>UTC</TIME_SYSTEM><MEAN_ELEMENT_THEORY>SGP4</MEAN_ELEMENT_THEORY></metadata><data><meanElements><EPOCH>2024-12-17T20:09:28.330272</EPOCH><MEAN_MOTION>14.33607946</MEAN_MOTION><ECCENTRICITY>.004776</ECCENTRICITY><INCLINATION>107.9669</INCLINATION><RA_OF_ASC_NODE>123.2541</RA_OF_ASC_NODE><ARG_OF_PERICENTER>208.5077</ARG_OF_PERICENTER><MEAN_ANOMALY>151.3448</MEAN_ANOMALY></meanElements><tleParameters><EPHEMERIS_TYPE>0</EPHEMERIS_TYPE><CLASSIFICATION_TYPE>U</CLASSIFICATION_TYPE><NORAD_CAT_ID>25158</NORAD_CAT_ID><ELEMENT_SET_NO>999</ELEMENT_SET_NO><REV_AT_EPOCH>39804</REV_AT_EPOCH><BSTAR>.12783E-2</BSTAR><MEAN_MOTION_DOT>.3463E-4</MEAN_MOTION_DOT><MEAN_MOTION_DDOT>0</MEAN_MOTION_DDOT></tleParameters></data></segment></body></omm>
<omm id="CCSDS_OMM_VERS" version="2.0">
<header><CREATION_DATE/><ORIGINATOR/></header><body><segment><metadata><OBJECT_NAME>ORBCOMM FM04</OBJECT_NAME><OBJECT_ID>1998-007C</OBJECT_ID><CENTER_NAME>EARTH</CENTER_NAME><REF_FRAME>TEME</REF_FRAME><TIME_SYSTEM>UTC</TIME_SYSTEM><MEAN_ELEMENT_THEORY>SGP4</MEAN_ELEMENT_THEORY></metadata><data><meanElements><EPOCH>2024-12-17T20:33:44.996256</EPOCH><MEAN_MOTION>14.33881122</MEAN_MOTION><ECCENTRICITY>.0043329</ECCENTRICITY><INCLINATION>107.9660</INCLINATION><RA_OF_ASC_NODE>126.3831</RA_OF_ASC_NODE><ARG_OF_PERICENTER>206.3612</ARG_OF_PERICENTER><MEAN_ANOMALY>153.5322</MEAN_ANOMALY></meanElements><tleParameters><EPHEMERIS_TYPE>0</EPHEMERIS_TYPE><CLASSIFICATION_TYPE>U</CLASSIFICATION_TYPE><NORAD_CAT_ID>25159</NORAD_CAT_ID><ELEMENT_SET_NO>999</ELEMENT_SET_NO><REV_AT_EPOCH>39822</REV_AT_EPOCH><BSTAR>.12545E-2</BSTAR><MEAN_MOTION_DOT>.3407E-4</MEAN_MOTION_DOT><MEAN_MOTION_DDOT>0</MEAN_MOTION_DDOT></tleParameters></data></segment></body></omm>
<omm id="CCSDS_OMM_VERS" version="2.0">
<header><CREATION_DATE/><ORIGINATOR/></header><body><segment><metadata><OBJECT_NAME>ORBCOMM FM17</OBJECT_NAME><OBJECT_ID>1998-046A</OBJECT_ID><CENTER_NAME>EARTH</CENTER_NAME><REF_FRAME>TEME</REF_FRAME><TIME_SYSTEM>UTC</TIME_SYSTEM><MEAN_ELEMENT_THEORY>SGP4</MEAN_ELEMENT_THEORY></metadata><data><meanElements><EPOCH>2024-12-17T19:20:26.349792</EPOCH><MEAN_MOTION>14.34368599</MEAN_MOTION><ECCENTRICITY>.0002488</ECCENTRICITY><INCLINATION>44.9952</INCLINATION><RA_OF_ASC_NODE>33.2108</RA_OF_ASC_NODE><ARG_OF_PERICENTER>324.4518</ARG_OF_PERICENTER><MEAN_ANOMALY>35.6162</MEAN_ANOMALY></meanElements><tleParameters><EPHEMERIS_TYPE>0</EPHEMERIS_TYPE><CLASSIFICATION_TYPE>U</CLASSIFICATION_TYPE><NORAD_CAT_ID>25413</NORAD_CAT_ID><ELEMENT_SET_NO>999</ELEMENT_SET_NO><REV_AT_EPOCH>37712</REV_AT_EPOCH><BSTAR>.83127E-3</BSTAR><MEAN_MOTION_DOT>.2219E-4</MEAN_MOTION_DOT><MEAN_MOTION_DDOT>0</MEAN_MOTION_DDOT></tleParameters></data></segment></body></omm>
<omm id="CCSDS_OMM_VERS" version="2.0">
<header><CREATION_DATE/><ORIGINATOR/></header><body><segment><metadata><OBJECT_NAME>ORBCOMM FM18</OBJECT_NAME><OBJECT_ID>1998-046B</OBJECT_ID><CENTER_NAME>EARTH</CENTER_NAME><REF_FRAME>TEME</REF_FRAME><TIME_SYSTEM>UTC</TIME_SYSTEM><MEAN_ELEMENT_THEORY>SGP4</MEAN_ELEMENT_THEORY></metadata><data><meanElements><EPOCH>2024-12-17T21:38:42.002592</EPOCH><MEAN_MOTION>14.37553980</MEAN_MOTION><ECCENTRICITY>.0003554</ECCENTRICITY><INCLINATION>44.9937</INCLINATION><RA_OF_ASC_NODE>314.8269</RA_OF_ASC_NODE><ARG_OF_PERICENTER>62.0861</ARG_OF_PERICENTER><MEAN_ANOMALY>298.0346</MEAN_ANOMALY></meanElements><tleParameters><EPHEMERIS_TYPE>0</EPHEMERIS_TYPE><CLASSIFICATION_TYPE>U</CLASSIFICATION_TYPE><NORAD_CAT_ID>25414</NORAD_CAT_ID><ELEMENT_SET_NO>999</ELEMENT_SET_NO><REV_AT_EPOCH>37815</REV_AT_EPOCH><BSTAR>.11428E-2</BSTAR><MEAN_MOTION_DOT>.3317E-4</MEAN_MOTION_DOT><MEAN_MOTION_DDOT>0</MEAN_MOTION_DDOT></tleParameters></data></segment></body></omm>
<omm id="CCSDS_OMM_VERS" version="2.0">
<header><CREATION_DATE/><ORIGINATOR/></header><body><segment><metadata><OBJECT_NAME>ORBCOMM FM19</OBJECT_NAME><OBJECT_ID>1998-046C</OBJECT_ID><CENTER_NAME>EARTH</CENTER_NAME><REF_FRAME>TEME</REF_FRAME><TIME_SYSTEM>UTC</TIME_SYSTEM><MEAN_ELEMENT_THEORY>SGP4</MEAN_ELEMENT_THEORY></metadata><data><meanElements><EPOCH>2024-12-17T21:34:38.421120</EPOCH><MEAN_MOTION>14.37367975</MEAN_MOTION><ECCENTRICITY>.0002761</ECCENTRICITY><INCLINATION>44.9950</INCLINATION><RA_OF_ASC_NODE>316.5578</RA_OF_ASC_NODE><ARG_OF_PERICENTER>41.5141</ARG_OF_PERICENTER><MEAN_ANOMALY>344.2192</MEAN_ANOMALY></meanElements><tleParameters><EPHEMERIS_TYPE>0</EPHEMERIS_TYPE><CLASSIFICATION_TYPE>U</CLASSIFICATION_TYPE><NORAD_CAT_ID>25415</NORAD_CAT_ID><ELEMENT_SET_NO>999</ELEMENT_SET_NO><REV_AT_EPOCH>37811</REV_AT_EPOCH><BSTAR>.89482E-3</BSTAR><MEAN_MOTION_DOT>.2556E-4</MEAN_MOTION_DOT><MEAN_MOTION_DDOT>0</MEAN_MOTION_DDOT></tleParameters></data></segment></body></omm>

</ndm>
